{
    "links": {
        "self": "http://www.neowsapp.com/rest/v1/neo/3768025?api_key=iIulBulltgU6a56xZRHN4H3l9WmuAYTsLGpBGhQ2"
    },
    "id": "3768025",
    "neo_reference_id": "3768025",
    "name": "(2017 CT)",
    "designation": "2017 CT",
    "nasa_jpl_url": "http://ssd.jpl.nasa.gov/sbdb.cgi?sstr=3768025",
    "absolute_magnitude_h": 26.8,
    "estimated_diameter": {
        "kilometers": {
            "estimated_diameter_min": 0.0116025908,
            "estimated_diameter_max": 0.0259441818
        },
        "meters": {
            "estimated_diameter_min": 11.6025908209,
            "estimated_diameter_max": 25.9441817907
        },
        "miles": {
            "estimated_diameter_min": 0.0072095135,
            "estimated_diameter_max": 0.0161209622
        },
        "feet": {
            "estimated_diameter_min": 38.066244069,
            "estimated_diameter_max": 85.1187093863
        }
    },
    "is_potentially_hazardous_asteroid": false,
    "close_approach_data": [
        {
            "close_approach_date": "2017-02-03",
            "close_approach_date_full": "2017-Feb-03 00:04",
            "epoch_date_close_approach": 1486080240000,
            "relative_velocity": {
                "kilometers_per_second": "10.538158477",
                "kilometers_per_hour": "37937.3705171507",
                "miles_per_hour": "23572.8066971707"
            },
            "miss_distance": {
                "astronomical": "0.0282700114",
                "lunar": "10.9970344346",
                "kilometers": "4229133.490315718",
                "miles": "2627861.6953161884"
            },
            "orbiting_body": "Earth"
        },
        {
            "close_approach_date": "2094-02-03",
            "close_approach_date_full": "2094-Feb-03 22:19",
            "epoch_date_close_approach": 3916073940000,
            "relative_velocity": {
                "kilometers_per_second": "10.5520388227",
                "kilometers_per_hour": "37987.3397615836",
                "miles_per_hour": "23603.8556424129"
            },
            "miss_distance": {
                "astronomical": "0.0286824054",
                "lunar": "11.1574557006",
                "kilometers": "4290826.754316498",
                "miles": "2666196.1119757524"
            },
            "orbiting_body": "Earth"
        },
        {
            "close_approach_date": "2171-03-02",
            "close_approach_date_full": "2171-Mar-02 21:50",
            "epoch_date_close_approach": 6348232200000,
            "relative_velocity": {
                "kilometers_per_second": "15.7049704793",
                "kilometers_per_hour": "56537.8937253144",
                "miles_per_hour": "35130.4484650433"
            },
            "miss_distance": {
                "astronomical": "0.3439213891",
                "lunar": "133.7854203599",
                "kilometers": "51449907.256801217",
                "miles": "31969489.9244301146"
            },
            "orbiting_body": "Earth"
        },
        {
            "close_approach_date": "2173-01-02",
            "close_approach_date_full": "2173-Jan-02 04:32",
            "epoch_date_close_approach": 6406230720000,
            "relative_velocity": {
                "kilometers_per_second": "16.5950044252",
                "kilometers_per_hour": "59742.0159308046",
                "miles_per_hour": "37121.3653987824"
            },
            "miss_distance": {
                "astronomical": "0.4143287441",
                "lunar": "161.1738814549",
                "kilometers": "61982697.597135067",
                "miles": "38514262.3567832446"
            },
            "orbiting_body": "Earth"
        }
    ],
    "orbital_data": {
        "orbit_id": "2",
        "orbit_determination_date": "2017-04-06 08:20:20",
        "first_observation_date": "2017-02-03",
        "last_observation_date": "2017-02-03",
        "data_arc_in_days": null,
        "observations_used": 24,
        "orbit_uncertainty": "8",
        "minimum_orbit_intersection": ".0281654",
        "jupiter_tisserand_invariant": "4.391",
        "epoch_osculation": "2457788.5",
        "eccentricity": ".33552109993615",
        "semi_major_axis": "1.522047422599016",
        "inclination": "17.44646213639409",
        "ascending_node_longitude": "134.7634642031153",
        "orbital_period": "685.8682559709639",
        "perihelion_distance": "1.011368397213612",
        "perihelion_argument": "351.7071105227687",
        "aphelion_distance": "2.03272644798442",
        "perihelion_time": "2457780.578730732055",
        "mean_anomaly": "4.157732788526846",
        "mean_motion": ".5248821429858398",
        "equinox": "J2000",
        "orbit_class": {
            "orbit_class_type": "APO",
            "orbit_class_description": "Near-Earth asteroid orbits which cross the Earth’s orbit similar to that of 1862 Apollo",
            "orbit_class_range": "a (semi-major axis) > 1.0 AU; q (perihelion) < 1.017 AU"
        }
    },
    "is_sentry_object": false
}